[{"OBJECT_NAME":"STARLINK-30338","OBJECT_ID":"2023-129W","EPOCH":"2026-03-09T22:00:01.999584","MEAN_MOTION":15.26753613,"ECCENTRICITY":0.00012914,"INCLINATION":42.9999,"RA_OF_ASC_NODE":116.8583,"ARG_OF_PERICENTER":250.1763,"MEAN_ANOMALY":138.3958,"EPHEMERIS_TYPE":0,"CLASSIFICATION_TYPE":"U","NORAD_CAT_ID":57718,"ELEMENT_SET_NO":999,"REV_AT_EPOCH":577,"BSTAR":0.00014443015,"MEAN_MOTION_DOT":3.618e-5,"MEAN_MOTION_DDOT":0},{"OBJECT_NAME":"TRANSPORTER-10 OBJECT AG","OBJECT_ID":"2024-043AG","EPOCH":"2026-03-09T22:12:45.387648","MEAN_MOTION":15.30759727,"ECCENTRICITY":0.00093005,"INCLINATION":97.5471,"RA_OF_ASC_NODE":205.7101,"ARG_OF_PERICENTER":226.5958,"MEAN_ANOMALY":133.4509,"EPHEMERIS_TYPE":0,"CLASSIFICATION_TYPE":"U","NORAD_CAT_ID":59128,"ELEMENT_SET_NO":999,"REV_AT_EPOCH":11192,"BSTAR":0.00032170115,"MEAN_MOTION_DOT":9.498e-5,"MEAN_MOTION_DDOT":0}]
